{
  "type": "FeatureCollection",
  "features": [
    {
      "type": "Feature",
      "properties": {
        "norad_id": 27954,
        "name": "GALAXY 13 (HORIZONS-1)",
        "group": "intelsat",
        "lat": -0.4246676999033736,
        "lon": 59.352164425779705,
        "alt_km": 35794.46479926968,
        "timestamp": "2025-12-25T07:41:09.390328+00:00",
        "meta_object_name": "GALAXY 13 (HORIZONS-1)",
        "meta_object_id": "2003-044A",
        "meta_epoch": "2025-12-24T17:31:23.154240",
        "meta_mean_motion": 1.00271701,
        "meta_eccentricity": 0.00023232,
        "meta_inclination": 0.9678,
        "meta_ra_of_asc_node": 86.3132,
        "meta_arg_of_pericenter": 184.6216,
        "meta_mean_anomaly": 295.3815,
        "meta_ephemeris_type": 0,
        "meta_classification_type": "U",
        "meta_norad_cat_id": 27954,
        "meta_element_set_no": 999,
        "meta_rev_at_epoch": 4482,
        "meta_bstar": 0,
        "meta_mean_motion_dot": 1.53e-06,
        "meta_mean_motion_ddot": 0,
        "tle_line1": "1 27954U 03044A   25358.73012910  .00000153  00000+0  00000+0 0  9991",
        "tle_line2": "2 27954   0.9678  86.3132 0002323 184.6216 295.3815  1.00271701 44820"
      },
      "geometry": {
        "type": "Point",
        "coordinates": [
          59.352164425779705,
          -0.4246676999033736
        ]
      }
    },
    {
      "type": "Feature",
      "properties": {
        "norad_id": 28358,
        "name": "INTELSAT 10-02",
        "group": "intelsat",
        "lat": 0.002054015374227776,
        "lon": -151.600742922431,
        "alt_km": 35786.246964057565,
        "timestamp": "2025-12-25T07:41:09.390341+00:00",
        "meta_object_name": "INTELSAT 10-02",
        "meta_object_id": "2004-022A",
        "meta_epoch": "2025-12-24T21:39:14.417280",
        "meta_mean_motion": 1.00272147,
        "meta_eccentricity": 0.00011275,
        "meta_inclination": 0.0167,
        "meta_ra_of_asc_node": 43.3909,
        "meta_arg_of_pericenter": 258.5926,
        "meta_mean_anomaly": 115.5436,
        "meta_ephemeris_type": 0,
        "meta_classification_type": "U",
        "meta_norad_cat_id": 28358,
        "meta_element_set_no": 999,
        "meta_rev_at_epoch": 7880,
        "meta_bstar": 0,
        "meta_mean_motion_dot": 1.1e-07,
        "meta_mean_motion_ddot": 0,
        "tle_line1": "1 28358U 04022A   25358.90225020  .00000011  00000+0  00000+0 0  9997",
        "tle_line2": "2 28358   0.0167  43.3909 0001127 258.5926 115.5436  1.00272147 78800"
      },
      "geometry": {
        "type": "Point",
        "coordinates": [
          -151.600742922431,
          0.002054015374227776
        ]
      }
    },
    {
      "type": "Feature",
      "properties": {
        "norad_id": 28626,
        "name": "XM-3 (RHYTHM)",
        "group": "intelsat",
        "lat": -0.025045591949050674,
        "lon": -96.17565984843945,
        "alt_km": 36161.05699378286,
        "timestamp": "2025-12-25T07:41:09.390353+00:00",
        "meta_object_name": "XM-3 (RHYTHM)",
        "meta_object_id": "2005-008A",
        "meta_epoch": "2025-12-24T20:13:00.176160",
        "meta_mean_motion": 0.9895011,
        "meta_eccentricity": 0.00021647,
        "meta_inclination": 0.204,
        "meta_ra_of_asc_node": 82.2123,
        "meta_arg_of_pericenter": 274.0481,
        "meta_mean_anomaly": 97.3595,
        "meta_ephemeris_type": 0,
        "meta_classification_type": "U",
        "meta_norad_cat_id": 28626,
        "meta_element_set_no": 999,
        "meta_rev_at_epoch": 4087,
        "meta_bstar": 0,
        "meta_mean_motion_dot": 9.7e-07,
        "meta_mean_motion_ddot": 0,
        "tle_line1": "1 28626U 05008A   25358.84236315  .00000097  00000+0  00000+0 0  9996",
        "tle_line2": "2 28626   0.2040  82.2123 0002164 274.0481  97.3595  0.98950110 40879"
      },
      "geometry": {
        "type": "Point",
        "coordinates": [
          -96.17565984843945,
          -0.025045591949050674
        ]
      }
    },
    {
      "type": "Feature",
      "properties": {
        "norad_id": 28659,
        "name": "DIRECTV 8",
        "group": "intelsat",
        "lat": 0.035872274391494714,
        "lon": 90.33141527658675,
        "alt_km": 35798.570473825945,
        "timestamp": "2025-12-25T07:41:09.390365+00:00",
        "meta_object_name": "DIRECTV 8",
        "meta_object_id": "2005-019A",
        "meta_epoch": "2025-12-24T17:39:59.828832",
        "meta_mean_motion": 1.00271677,
        "meta_eccentricity": 0.00030261,
        "meta_inclination": 0.0184,
        "meta_ra_of_asc_node": 29.67,
        "meta_arg_of_pericenter": 253.5976,
        "meta_mean_anomaly": 316.1971,
        "meta_ephemeris_type": 0,
        "meta_classification_type": "U",
        "meta_norad_cat_id": 28659,
        "meta_element_set_no": 999,
        "meta_rev_at_epoch": 7532,
        "meta_bstar": 0,
        "meta_mean_motion_dot": 2.2e-07,
        "meta_mean_motion_ddot": 0,
        "tle_line1": "1 28659U 05019A   25358.73610913  .00000022  00000+0  00000+0 0  9990",
        "tle_line2": "2 28659   0.0184  29.6700 0003026 253.5976 316.1971  1.00271677 75323"
      },
      "geometry": {
        "type": "Point",
        "coordinates": [
          90.33141527658675,
          0.035872274391494714
        ]
      }
    },
    {
      "type": "Feature",
      "properties": {
        "norad_id": 28702,
        "name": "GALAXY 28 (G-28)",
        "group": "intelsat",
        "lat": 2.0636645288751523,
        "lon": 126.90573688768856,
        "alt_km": 35700.044144216175,
        "timestamp": "2025-12-25T07:41:09.390377+00:00",
        "meta_object_name": "GALAXY 28 (G-28)",
        "meta_object_id": "2005-022A",
        "meta_epoch": "2025-12-24T19:33:11.490048",
        "meta_mean_motion": 1.00600107,
        "meta_eccentricity": 0.00035454,
        "meta_inclination": 2.8507,
        "meta_ra_of_asc_node": 81.1411,
        "meta_arg_of_pericenter": 159.1826,
        "meta_mean_anomaly": 63.5727,
        "meta_ephemeris_type": 0,
        "meta_classification_type": "U",
        "meta_norad_cat_id": 28702,
        "meta_element_set_no": 999,
        "meta_rev_at_epoch": 5022,
        "meta_bstar": 0,
        "meta_mean_motion_dot": -2.27e-06,
        "meta_mean_motion_ddot": 0,
        "tle_line1": "1 28702U 05022A   25358.81471632 -.00000227  00000+0  00000+0 0  9993",
        "tle_line2": "2 28702   2.8507  81.1411 0003545 159.1826  63.5727  1.00600107 50222"
      },
      "geometry": {
        "type": "Point",
        "coordinates": [
          126.90573688768856,
          2.0636645288751523
        ]
      }
    },
    {
      "type": "Feature",
      "properties": {
        "norad_id": 29236,
        "name": "GALAXY 16 (G-16)",
        "group": "intelsat",
        "lat": 0.01352317056531687,
        "lon": 110.34960461409403,
        "alt_km": 35797.09256212915,
        "timestamp": "2025-12-25T07:41:09.390389+00:00",
        "meta_object_name": "GALAXY 16 (G-16)",
        "meta_object_id": "2006-023A",
        "meta_epoch": "2025-12-24T19:28:26.943744",
        "meta_mean_motion": 1.00271756,
        "meta_eccentricity": 0.00026673,
        "meta_inclination": 0.036,
        "meta_ra_of_asc_node": 198.3571,
        "meta_arg_of_pericenter": 78.6804,
        "meta_mean_anomaly": 9.6474,
        "meta_ephemeris_type": 0,
        "meta_classification_type": "U",
        "meta_norad_cat_id": 29236,
        "meta_element_set_no": 999,
        "meta_rev_at_epoch": 7122,
        "meta_bstar": 0,
        "meta_mean_motion_dot": -1.06e-06,
        "meta_mean_motion_ddot": 0,
        "tle_line1": "1 29236U 06023A   25358.81142296 -.00000106  00000+0  00000+0 0  9995",
        "tle_line2": "2 29236   0.0360 198.3571 0002667  78.6804   9.6474  1.00271756 71222"
      },
      "geometry": {
        "type": "Point",
        "coordinates": [
          110.34960461409403,
          0.01352317056531687
        ]
      }
    },
    {
      "type": "Feature",
      "properties": {
        "norad_id": 29494,
        "name": "DIRECTV 9S",
        "group": "intelsat",
        "lat": 0.8556762179997359,
        "lon": 108.14358124273859,
        "alt_km": 35798.4103118464,
        "timestamp": "2025-12-25T07:41:09.390401+00:00",
        "meta_object_name": "DIRECTV 9S",
        "meta_object_id": "2006-043A",
        "meta_epoch": "2025-12-24T14:19:48.997632",
        "meta_mean_motion": 1.00271842,
        "meta_eccentricity": 0.00029804,
        "meta_inclination": 1.9689,
        "meta_ra_of_asc_node": 83.0865,
        "meta_arg_of_pericenter": 195.4722,
        "meta_mean_anomaly": 288.5613,
        "meta_ephemeris_type": 0,
        "meta_classification_type": "U",
        "meta_norad_cat_id": 29494,
        "meta_element_set_no": 999,
        "meta_rev_at_epoch": 4963,
        "meta_bstar": 0,
        "meta_mean_motion_dot": -9.3e-07,
        "meta_mean_motion_ddot": 0,
        "tle_line1": "1 29494U 06043A   25358.59709488 -.00000093  00000+0  00000+0 0  9995",
        "tle_line2": "2 29494   1.9689  83.0865 0002980 195.4722 288.5613  1.00271842 49632"
      },
      "geometry": {
        "type": "Point",
        "coordinates": [
          108.14358124273859,
          0.8556762179997359
        ]
      }
    }
  ]
}